NORAD_CAT_ID,OBJECT_NAME,OBJECT_TYPE,EPOCH,MEAN_MOTION,ECCENTRICITY,INCLINATION,RA_OF_ASC_NODE,ARG_OF_PERICENTER,MEAN_ANOMALY,BSTAR,MEAN_MOTION_DOT,MEAN_MOTION_DDOT,TLE_LINE0,TLE_LINE1,TLE_LINE2,SEMIMAJOR_AXIS,PERIOD,APOGEE,PERIGEE,DECAYED
53278.0,STARLINK-4180,PAYLOAD,2023-09-22 16:16:37,15.08844964,0.0001568,53.2155,259.9411,84.2221,275.8949,0.00019905,2.882e-05,0.0,0 STARLINK-4180,1 53278U 22086AN  23265.67821471  .00002882  00000-0  19905-3 0  9994,2 53278  53.2155 259.9411 0001568  84.2221 275.8949 15.08844964 65473,6917.865,95.437,540.815,538.645,0.0
53278.0,STARLINK-4180,PAYLOAD,2023-09-23 00:13:33,15.08842068,0.0001602,53.216,258.4549,86.5862,273.5313,0.00010563,1.394e-05,0.0,0 STARLINK-4180,1 53278U 22086AN  23266.00941579  .00001394  00000-0  10563-3 0  9992,2 53278  53.2160 258.4549 0001602  86.5862 273.5313 15.08842068 65350,6917.874,95.437,540.847,538.631,0.0
53278.0,STARLINK-4180,PAYLOAD,2023-09-23 06:35:05,15.08847558,0.0001622,53.2162,257.2658,87.1675,272.9503,0.00015694,2.211e-05,0.0,0 STARLINK-4180,1 53278U 22086AN  23266.27437221  .00002211  00000-0  15694-3 0  9994,2 53278  53.2162 257.2658 0001622  87.1675 272.9503 15.08847558 65567,6917.857,95.437,540.844,538.6,0.0
53278.0,STARLINK-4180,PAYLOAD,2023-09-24 03:15:06,15.08837906,0.0001709,53.2163,253.4023,98.0272,262.0915,-3.3995e-05,-8.29e-06,0.0,0 STARLINK-4180,1 53278U 22086AN  23267.13549610 -.00000829  00000-0 -33995-4 0  9996,2 53278  53.2163 253.4023 0001709  98.0272 262.0915 15.08837906 65521,6917.887,95.438,540.934,538.57,0.0
53278.0,STARLINK-4180,PAYLOAD,2023-09-24 04:50:30,15.08837072,0.0001701,53.2164,253.1048,97.6168,262.5017,-4.6836e-05,-1.033e-05,0.0,0 STARLINK-4180,1 53278U 22086AN  23267.20173653 -.00001033  00000-0 -46836-4 0  9990,2 53278  53.2164 253.1048 0001701  97.6168 262.5017 15.08837072 65709,6917.889,95.438,540.931,538.578,0.0
53278.0,STARLINK-4180,PAYLOAD,2023-09-25 04:41:17,15.08842579,0.0001605,53.2169,248.6444,101.3743,258.743,0.00010404,1.368e-05,0.0,0 STARLINK-4180,1 53278U 22086AN  23268.19533639  .00001368  00000-0  10404-3 0  9993,2 53278  53.2169 248.6444 0001605 101.3743 258.7430 15.08842579 65689,6917.873,95.437,540.848,538.627,0.0
53278.0,STARLINK-4180,PAYLOAD,2023-09-25 22:10:31,15.08848276,0.0001443,53.2164,245.371,93.9776,266.1381,0.00028302,4.22e-05,0.0,0 STARLINK-4180,1 53278U 22086AN  23268.92397297  .00004220  00000-0  28302-3 0  9998,2 53278  53.2164 245.3710 0001443  93.9776 266.1381 15.08848276 65965,6917.855,95.437,540.718,538.722,0.0
53278.0,STARLINK-4180,PAYLOAD,2023-09-26 06:07:26,15.08862224,0.0001475,53.2155,243.8838,94.0203,266.0957,0.0004931,7.573e-05,0.0,0 STARLINK-4180,1 53278U 22086AN  23269.25516646  .00007573  00000-0  49310-3 0  9992,2 53278  53.2155 243.8838 0001475  94.0203 266.0957 15.08862224 65845,6917.812,95.436,540.698,538.657,0.0
53278.0,STARLINK-4180,PAYLOAD,2023-09-26 22:01:18,15.08841911,0.0001691,53.2159,240.911,88.8075,271.3111,4.318e-05,3.99e-06,0.0,0 STARLINK-4180,1 53278U 22086AN  23269.91757443  .00000399  00000-0  43180-4 0  9996,2 53278  53.2159 240.9110 0001691  88.8075 271.3111 15.08841911 65940,6917.875,95.437,540.909,538.57,0.0
53278.0,STARLINK-4180,PAYLOAD,2023-09-27 04:22:51,15.08834711,0.0001507,53.2146,239.7197,80.3914,279.7248,-2.3572e-05,-6.63e-06,0.0,0 STARLINK-4180,1 53278U 22086AN  23270.18253692 -.00000663  00000-0 -23572-4 0  9993,2 53278  53.2146 239.7197 0001507  80.3914 279.7248 15.08834711 66159,6917.897,95.438,540.804,538.719,0.0
53278.0,STARLINK-4180,PAYLOAD,2023-09-28 07:24:25,15.08836789,0.0001473,53.2151,234.6627,105.4967,254.6188,0.00015183,2.129e-05,0.0,0 STARLINK-4180,1 53278U 22086AN  23271.30862389  .00002129  00000-0  15183-3 0  9992,2 53278  53.2151 234.6627 0001473 105.4967 254.6188 15.08836789 66158,6917.89,95.438,540.774,538.736,0.0
53278.0,STARLINK-4180,PAYLOAD,2023-09-29 07:15:12,15.08847816,0.0001457,53.2152,230.2026,100.7997,259.316,0.00040204,6.118e-05,0.0,0 STARLINK-4180,1 53278U 22086AN  23272.30222315  .00006118  00000-0  40204-3 0  9996,2 53278  53.2152 230.2026 0001457 100.7997 259.3160 15.08847816 66477,6917.856,95.437,540.729,538.714,0.0
53278.0,STARLINK-4180,PAYLOAD,2023-09-30 03:55:13,15.08837634,0.0001411,53.2157,226.3362,100.4378,259.6773,4.711e-05,4.62e-06,0.0,0 STARLINK-4180,1 53278U 22086AN  23273.16334700  .00000462  00000-0  47110-4 0  9993,2 53278  53.2157 226.3362 0001411 100.4378 259.6773 15.08837634 66437,6917.888,95.438,540.729,538.777,0.0
53278.0,STARLINK-4180,PAYLOAD,2023-10-01 03:45:59,15.08850377,0.0001411,53.2156,221.8784,98.9822,261.133,0.00026316,3.904e-05,0.0,0 STARLINK-4180,1 53278U 22086AN  23274.15694043  .00003904  00000-0  26316-3 0  9990,2 53278  53.2156 221.8784 0001411  98.9822 261.1330 15.08850377 66581,6917.849,95.437,540.69,538.738,0.0
53278.0,STARLINK-4180,PAYLOAD,2023-10-01 13:18:18,15.08845213,0.0001385,53.2151,220.0953,83.4216,276.6934,6.9999e-05,8.26e-06,0.0,0 STARLINK-4180,1 53278U 22086AN  23274.55438210  .00000826  00000-0  69999-4 0  9991,2 53278  53.2151 220.0953 0001385  83.4216 276.6934 15.08845213 66811,6917.864,95.437,540.688,538.771,0.0
53278.0,STARLINK-4180,PAYLOAD,2023-10-01 21:15:14,15.08835308,0.0001772,53.2158,218.6064,92.7774,267.3421,4.9847e-05,5.05e-06,0.0,0 STARLINK-4180,1 53278U 22086AN  23274.88558897  .00000505  00000-0  49847-4 0  9995,2 53278  53.2158 218.6064 0001772  92.7774 267.3421 15.08835308 66863,6917.895,95.438,540.986,538.534,0.0
53278.0,STARLINK-4180,PAYLOAD,2023-10-02 19:30:38,15.08838871,0.0001919,53.2158,214.4435,87.5852,272.5359,5.9435e-05,6.58e-06,0.0,0 STARLINK-4180,1 53278U 22086AN  23275.81294819  .00000658  00000-0  59435-4 0  9993,2 53278  53.2158 214.4435 0001919  87.5852 272.5359 15.08838871 66834,6917.884,95.438,541.076,538.421,0.0
53278.0,STARLINK-4180,PAYLOAD,2023-10-03 12:59:53,15.08838067,0.0001503,53.2161,211.173,88.3145,271.802,-8.2294e-05,-1.597e-05,0.0,0 STARLINK-4180,1 53278U 22086AN  23276.54158851 -.00001597  00000-0 -82294-4 0  9993,2 53278  53.2161 211.1730 0001503  88.3145 271.8020 15.08838067 67119,6917.886,95.438,540.791,538.712,0.0
53278.0,STARLINK-4180,PAYLOAD,2023-10-04 04:53:44,15.08842414,0.0001508,53.2168,208.1979,93.2953,266.8212,9.0009e-05,1.145e-05,0.0,0 STARLINK-4180,1 53278U 22086AN  23277.20398885  .00001145  00000-0  90009-4 0  9990,2 53278  53.2168 208.1979 0001508  93.2953 266.8212 15.08842414 67044,6917.873,95.437,540.781,538.695,0.0
53278.0,STARLINK-4180,PAYLOAD,2023-10-04 12:50:40,15.08841337,0.0001432,53.2165,206.7112,93.174,266.9416,6.899e-05,8.1e-06,0.0,0 STARLINK-4180,1 53278U 22086AN  23277.53519003  .00000810  00000-0  68990-4 0  9995,2 53278  53.2165 206.7112 0001432  93.1740 266.9416 15.08841337 67267,6917.876,95.437,540.732,538.751,0.0
53278.0,STARLINK-4180,PAYLOAD,2023-10-05 04:44:30,15.08862347,0.0001461,53.2163,203.737,93.5943,266.5216,0.00039098,5.944e-05,0.0,0 STARLINK-4180,1 53278U 22086AN  23278.19757994  .00005944  00000-0  39098-3 0  9990,2 53278  53.2163 203.7370 0001461  93.5943 266.5216 15.08862347 67199,6917.812,95.436,540.688,538.666,0.0
53278.0,STARLINK-4180,PAYLOAD,2023-10-05 12:41:27,15.0884511,0.0001171,53.2168,202.2504,102.3149,257.7974,0.00017558,2.508e-05,0.0,0 STARLINK-4180,1 53278U 22086AN  23278.52878607  .00002508  00000-0  17558-3 0  9992,2 53278  53.2168 202.2504 0001171 102.3149 257.7974 15.08845110 67419,6917.865,95.437,540.54,538.92,0.0
53278.0,STARLINK-4180,PAYLOAD,2023-10-05 22:13:46,15.08842586,0.0001303,53.2162,200.4663,103.8058,256.3079,0.00011179,1.492e-05,0.0,0 STARLINK-4180,1 53278U 22086AN  23278.92622745  .00001492  00000-0  11179-3 0  9990,2 53278  53.2162 200.4663 0001303 103.8058 256.3079 15.08842586 67472,6917.872,95.437,540.639,538.836,0.0
53278.0,STARLINK-4180,PAYLOAD,2023-10-06 04:35:18,15.08850945,0.0001847,53.2169,199.2742,111.94,248.1788,0.00024586,3.628e-05,0.0,0 STARLINK-4180,1 53278U 22086AN  23279.19118353  .00003628  00000-0  24586-3 0  9994,2 53278  53.2169 199.2742 0001847 111.9400 248.1788 15.08850945 67515,6917.847,95.437,540.99,538.434,0.0
53278.0,STARLINK-4180,PAYLOAD,2023-10-06 22:04:33,15.0883362,0.0001835,53.2158,196.0029,119.9703,240.1472,-0.00010103,-1.895e-05,0.0,0 STARLINK-4180,1 53278U 22086AN  23279.91983099 -.00001895  00000-0 -10103-3 0  9997,2 53278  53.2158 196.0029 0001835 119.9703 240.1472 15.08833620 67622,6917.9,95.438,541.034,538.495,0.0
53278.0,STARLINK-4180,PAYLOAD,2023-10-07 01:15:19,15.08836374,0.0001233,53.2163,195.4133,86.9307,273.1826,5.1684e-05,5.35e-06,0.0,0 STARLINK-4180,1 53278U 22086AN  23280.05231310  .00000535  00000-0  51684-4 0  9994,2 53278  53.2163 195.4133 0001233  86.9307 273.1826 15.08836374 67473,6917.891,95.438,540.609,538.903,0.0
53278.0,STARLINK-4180,PAYLOAD,2023-10-07 04:26:06,15.08840101,0.0001413,53.2162,194.8162,90.4804,269.635,5.8446e-05,6.42e-06,0.0,0 STARLINK-4180,1 53278U 22086AN  23280.18479198  .00000642  00000-0  58446-4 0  9998,2 53278  53.2162 194.8162 0001413  90.4804 269.6350 15.08840101 67665,6917.88,95.438,540.723,538.768,0.0
53278.0,STARLINK-4180,PAYLOAD,2023-10-07 21:55:20,15.08839343,0.0001419,53.2163,191.5456,89.1157,270.9998,0.00026569,3.943e-05,0.0,0 STARLINK-4180,1 53278U 22086AN  23280.91343671  .00003943  00000-0  26569-3 0  9992,2 53278  53.2163 191.5456 0001419  89.1157 270.9998 15.08839343 67779,6917.882,95.438,540.729,538.766,0.0
53278.0,STARLINK-4180,PAYLOAD,2023-10-08 02:41:29,15.08856108,0.0001333,53.2158,190.657,97.282,262.8324,0.00062083,9.611e-05,0.0,0 STARLINK-4180,1 53278U 22086AN  23281.11215020  .00009611  00000-0  62083-3 0  9990,2 53278  53.2158 190.6570 0001333  97.2820 262.8324 15.08856108 67638,6917.831,95.437,540.618,538.774,0.0
53278.0,STARLINK-4180,PAYLOAD,2023-10-08 04:16:52,15.08858725,0.0001328,53.2152,190.3571,97.3865,262.7278,0.0011627,0.00018274,0.0,0 STARLINK-4180,1 53278U 22086AN  23281.17839074  .00018274  00000-0  11627-2 0  9999,2 53278  53.2152 190.3571 0001328  97.3865 262.7278 15.08858725 67818,6917.823,95.436,540.607,538.769,0.0
